<?xml version="1.0" encoding="UTF-8"?>
<kml xmlns="http://earth.google.com/kml/2.0">
	<Document>
		<name>GPS Visualizer data</name>
		<Style id="waypoint">
			<IconStyle>
				<color>ffffffff</color>
				<scale>1</scale>
				<Icon><href>http://maps.google.com/mapfiles/kml/pal4/icon56.png</href></Icon>
				<hotSpot x="0.5" xunits="fraction" y="0.5" yunits="fraction" />
			</IconStyle>
			<BalloonStyle>
				<text><![CDATA[<h3>$[name]</h3> <div style="margin-top:8px;">$[description]</div>]]></text>
			</BalloonStyle>
		</Style>
		<Style id="track">
			<LineStyle>
				<color>ff0000ff</color>
				<width>3</width>
			</LineStyle>
		</Style>
		<Style id="polygon">
			<LineStyle>
				<color>ff9900ff</color>
				<width>3</width>
			</LineStyle>
			<PolyStyle>
				<color>409900ff</color>
				<colorMode>normal</colorMode>
				<fill>1</fill>
				<outline>1</outline>
			</PolyStyle>
		</Style>
		<Folder>
			<name>Tracks</name>
			<Placemark>
				<name>HalfM2026V1</name>
				<description>Length: 21.2 km (13.17 mi)</description>
				<visibility>1</visibility>
				<styleUrl>#track</styleUrl>
				<LineString>
					<extrude>0</extrude>
					<tessellate>1</tessellate>
					<altitudeMode>clampedToGround</altitudeMode>
					<coordinates>
						144.9761438,-37.8204803 144.9761224,-37.8194124 144.9756503,-37.8185310 144.9746847,-37.8179377 144.9736333,-37.8173953 144.9728394,-37.8168190 144.9723673,-37.8161579 144.9676251,-37.8175479 144.9681187,-37.8185310 144.9684191,-37.8193616 144.9690628,-37.8205142 144.9694920,-37.8213108 144.9701786,-37.8228194 144.9704361,-37.8232431 144.9706936,-37.8231414 144.9712729,-37.8234804 144.9719167,-37.8245821 144.9725175,-37.8258533 144.9724102,-37.8266499 144.9729681,-37.8277177 144.9736762,-37.8283448 144.9742341,-37.8295311 144.9744165,-37.8299718 144.9747062,-37.8302938 144.9751568,-37.8304718 144.9755430,-37.8305989 144.9758756,-37.8307344 144.9763048,-37.8308446 144.9766266,-37.8310988 144.9765623,-37.8313530 144.9765837,-37.8316835 144.9766695,-37.8319632 144.9766266,-37.8322513 144.9764657,-37.8325309 144.9762833,-37.8327936 144.9762189,-37.8331240 144.9761438,-37.8333105 144.9744594,-37.8330732 144.9732900,-37.8329715 144.9727428,-37.8329461 144.9722064,-37.8329292 144.9720132,-37.8329546 144.9721420,-37.8331664 144.9724960,-37.8334037 144.9728179,-37.8335647 144.9732256,-37.8337257 144.9736226,-37.8338782 144.9739444,-37.8341239 144.9743843,-37.8346239 144.9748349,-37.8351916 144.9754143,-37.8360898 144.9759614,-37.8374794 144.9765515,-37.8390469 144.9771631,-37.8407499 144.9779463,-37.8429020 144.9786222,-37.8447913 144.9793625,-37.8468416 144.9801350,-37.8490274 144.9808645,-37.8509758 144.9816692,-37.8530344 144.9820554,-37.8542035 144.9823558,-37.8551946 144.9825919,-37.8559485 144.9826777,-37.8563297 144.9826348,-37.8565499 144.9825704,-37.8567617 144.9819589,-37.8570836 144.9812508,-37.8575326 144.9805212,-37.8579222 144.9803442,-37.8580027 144.9801725,-37.8578714 144.9797004,-37.8573970 144.9792445,-37.8568845 144.9789011,-37.8563678 144.9787456,-37.8559782 144.9786276,-37.8554148 144.9786705,-37.8550040 144.9786919,-37.8546270 144.9787134,-37.8540425 144.9786758,-37.8536740 144.9786222,-37.8533606 144.9770880,-37.8536698 144.9763209,-37.8538392 144.9759239,-37.8539070 144.9756020,-37.8538095 144.9753767,-37.8536655 144.9751300,-37.8533309 144.9747598,-37.8527718 144.9744755,-37.8524075 144.9742770,-37.8521746 144.9741912,-37.8520941 144.9740785,-37.8520771 144.9739605,-37.8521364 144.9738210,-37.8522805 144.9735475,-37.8525261 144.9733222,-37.8527422 144.9730808,-37.8528608 144.9728072,-37.8529031 144.9725336,-37.8528735 144.9722493,-37.8526913 144.9708599,-37.8515900 144.9697548,-37.8507132 144.9689931,-37.8501117 144.9678652,-37.8491788 144.9678947,-37.8491608 144.9683413,-37.8495208 144.9688455,-37.8499211 144.9695805,-37.8505036 144.9706426,-37.8513486 144.9711576,-37.8517701 144.9719650,-37.8524097 144.9723405,-37.8527210 144.9725148,-37.8528078 144.9726570,-37.8528480 144.9727777,-37.8528650 144.9729010,-37.8528586 144.9730164,-37.8528353 144.9731693,-37.8527845 144.9732926,-37.8527040 144.9734992,-37.8525028 144.9739310,-37.8521280 144.9740061,-37.8520644 144.9741054,-37.8520475 144.9740866,-37.8519522 144.9740624,-37.8518717 144.9740088,-37.8518357 144.9739364,-37.8517743 144.9735367,-37.8513380 144.9730512,-37.8508191 144.9723539,-37.8501583 144.9720508,-37.8498703 144.9716082,-37.8495526 144.9707714,-37.8489172 144.9702135,-37.8485212 144.9697039,-37.8482056 144.9693176,-37.8479578 144.9687651,-37.8476486 144.9686095,-37.8475575 144.9683896,-37.8474516 144.9679282,-37.8472292 144.9675259,-37.8470174 144.9670967,-37.8468162 144.9668285,-37.8466785 144.9667400,-37.8466340 144.9666300,-37.8465070 144.9665710,-37.8465112 144.9664986,-37.8465091 144.9663618,-37.8465218 144.9662304,-37.8465345 144.9661955,-37.8465302 144.9660587,-37.8463184 144.9658790,-37.8461257 144.9654740,-37.8458186 144.9648625,-37.8453611 144.9641570,-37.8447617 144.9637225,-37.8443381 144.9631700,-37.8437492 144.9627167,-37.8431710 144.9622983,-37.8425546 144.9621320,-37.8422898 144.9621642,-37.8421670 144.9622554,-37.8421034 144.9624082,-37.8420696 144.9626631,-37.8420357 144.9627998,-37.8420039 144.9628991,-37.8419234 144.9629849,-37.8417603 144.9631646,-37.8413875 144.9633336,-37.8410338 144.9634704,-37.8407605 144.9636474,-37.8404767 144.9636984,-37.8402204 144.9636877,-37.8400001 144.9636850,-37.8399196 144.9638191,-37.8397756 144.9639881,-37.8396485 144.9645218,-37.8393456 144.9650073,-37.8390638 144.9654257,-37.8388711 144.9657369,-37.8387588 144.9658737,-37.8387461 144.9660346,-37.8386677 144.9664906,-37.8385194 144.9669975,-37.8383479 144.9674857,-37.8381360 144.9678156,-37.8379814 144.9679470,-37.8379284 144.9681589,-37.8381530 144.9684459,-37.8383542 144.9687624,-37.8384728 144.9691272,-37.8385322 144.9695161,-37.8385470 144.9698648,-37.8385830 144.9702725,-37.8387080 144.9706239,-37.8388923 144.9709484,-37.8391210 144.9711630,-37.8393456 144.9713910,-37.8396908 144.9714822,-37.8400255 144.9716404,-37.8406292 144.9717584,-37.8410931 144.9717531,-37.8413769 144.9717262,-37.8416798 144.9716565,-37.8419573 144.9715117,-37.8423025 144.9710798,-37.8431625 144.9708250,-37.8436793 144.9707070,-37.8440182 144.9706507,-37.8442406 144.9706104,-37.8446600 144.9706292,-37.8451408 144.9707446,-37.8455411 144.9709108,-37.8459711 144.9711844,-37.8463862 144.9714956,-37.8467569 144.9718067,-37.8470407 144.9724075,-37.8474706 144.9728903,-37.8477947 144.9732095,-37.8479726 144.9734482,-37.8480594 144.9736601,-37.8480849 144.9740008,-37.8480827 144.9745131,-37.8480679 144.9747437,-37.8480827 144.9750119,-37.8481908 144.9758488,-37.8487351 144.9763155,-37.8490591 144.9767447,-37.8493387 144.9770826,-37.8496098 144.9773535,-37.8498851 144.9775305,-37.8501583 144.9777183,-37.8505734 144.9779543,-37.8511982 144.9781957,-37.8518632 144.9784344,-37.8524922 144.9786168,-37.8531149 144.9786705,-37.8533563 144.9787349,-37.8536719 144.9787563,-37.8540467 144.9787536,-37.8545381 144.9787375,-37.8548303 144.9787804,-37.8550908 144.9788046,-37.8554402 144.9788743,-37.8557960 144.9790218,-37.8561582 144.9791560,-37.8564525 144.9793276,-37.8567321 144.9796253,-37.8570921 144.9799311,-37.8574013 144.9802798,-37.8577613 144.9803925,-37.8578714 144.9817523,-37.8570836 144.9823156,-37.8567363 144.9825275,-37.8565965 144.9825490,-37.8563530 144.9825248,-37.8562238 144.9824417,-37.8557897 144.9823049,-37.8553428 144.9820769,-37.8546778 144.9820313,-37.8546249 144.9818784,-37.8542310 144.9815458,-37.8533119 144.9812615,-37.8525071 144.9809182,-37.8515456 144.9805132,-37.8504400 144.9802476,-37.8497263 144.9800169,-37.8491100 144.9797300,-37.8483200 144.9793679,-37.8473457 144.9789870,-37.8462994 144.9787188,-37.8455221 144.9784693,-37.8448676 144.9781850,-37.8440627 144.9779570,-37.8434802 144.9776673,-37.8426817 144.9774152,-37.8419912 144.9772140,-37.8413854 144.9769217,-37.8406461 144.9767098,-37.8400128 144.9763852,-37.8391422 144.9761492,-37.8384919 144.9757791,-37.8374900 144.9756745,-37.8372294 144.9756342,-37.8370345 144.9756530,-37.8369689 144.9755189,-37.8366045 144.9753794,-37.8363080 144.9751943,-37.8359669 144.9749663,-37.8355708 144.9746391,-37.8350878 144.9743038,-37.8346535 144.9739632,-37.8343040 144.9737352,-37.8340922 144.9735501,-37.8339693 144.9731344,-37.8337659 144.9726784,-37.8335647 144.9723887,-37.8334143 144.9720588,-37.8331855 144.9719703,-37.8331092 144.9718872,-37.8329906 144.9717826,-37.8328042 144.9716243,-37.8323826 144.9715707,-37.8322788 144.9715868,-37.8322089 144.9715358,-37.8319398 144.9713963,-37.8315395 144.9713078,-37.8311603 144.9712810,-37.8306349 144.9712220,-37.8299506 144.9711952,-37.8293384 144.9712139,-37.8288341 144.9712542,-37.8283744 144.9713132,-37.8277431 144.9713507,-37.8272876 144.9713373,-37.8269952 144.9712220,-37.8263300 144.9711040,-37.8258003 144.9709404,-37.8253385 144.9708009,-37.8249931 144.9706721,-37.8247304 144.9705943,-37.8245376 144.9702778,-37.8238724 144.9699908,-37.8232389 144.9696904,-37.8226181 144.9694330,-37.8220397 144.9691325,-37.8214486 144.9689904,-37.8211413 144.9688026,-37.8207303 144.9686578,-37.8203849 144.9686310,-37.8201752 144.9685720,-37.8199930 144.9683923,-37.8196031 144.9682260,-37.8192556 144.9680623,-37.8188785 144.9679524,-37.8186772 144.9678451,-37.8185268 144.9676868,-37.8181983 144.9675876,-37.8179674 144.9674642,-37.8176792 144.9674401,-37.8175457 144.9674481,-37.8174186 144.9677619,-37.8173360 144.9687436,-37.8170372 144.9701196,-37.8166389 144.9713936,-37.8162384 144.9724638,-37.8159417 144.9732202,-37.8157489 144.9735636,-37.8157680 144.9739712,-37.8157786 144.9743843,-37.8158210 144.9750951,-37.8159121 144.9761277,-37.8160689 144.9775279,-37.8162532 144.9787670,-37.8164249 144.9789521,-37.8164503 144.9788609,-37.8168444 144.9787456,-37.8176093 144.9786571,-37.8180394 144.9786705,-37.8182640 144.9787295,-37.8184441 144.9788877,-37.8186941 144.9793920,-37.8190120 144.9801511,-37.8194675 144.9806392,-37.8197620 144.9810550,-37.8200057 144.9818006,-37.8204549 144.9822029,-37.8207579 144.9827555,-37.8204379 144.9830639,-37.8205227 144.9832356,-37.8205714 144.9834394,-37.8205905 144.9836782,-37.8205608 144.9839571,-37.8204591 144.9841341,-37.8203405 144.9842522,-37.8201964 144.9843138,-37.8200205 144.9842843,-37.8198447 144.9842414,-37.8197175 144.9841422,-37.8196095 144.9839652,-37.8195057 144.9837962,-37.8194421 144.9836084,-37.8194145 144.9834475,-37.8194103 144.9832222,-37.8194273 144.9831417,-37.8194590 
					</coordinates>
				</LineString>
			</Placemark>
		</Folder>
	</Document>
</kml>
