<?xml version="1.0" encoding="UTF-8"?>
<kml xmlns="http://earth.google.com/kml/2.0">
	<Document>
		<name>GPS Visualizer data</name>
		<Style id="waypoint">
			<IconStyle>
				<color>ffffffff</color>
				<scale>1</scale>
				<Icon><href>http://maps.google.com/mapfiles/kml/pal4/icon56.png</href></Icon>
				<hotSpot x="0.5" xunits="fraction" y="0.5" yunits="fraction" />
			</IconStyle>
			<BalloonStyle>
				<text><![CDATA[<h3>$[name]</h3> <div style="margin-top:8px;">$[description]</div>]]></text>
			</BalloonStyle>
		</Style>
		<Style id="track">
			<LineStyle>
				<color>ff0000ff</color>
				<width>3</width>
			</LineStyle>
		</Style>
		<Style id="polygon">
			<LineStyle>
				<color>ff9900ff</color>
				<width>3</width>
			</LineStyle>
			<PolyStyle>
				<color>409900ff</color>
				<colorMode>normal</colorMode>
				<fill>1</fill>
				<outline>1</outline>
			</PolyStyle>
		</Style>
		<Folder>
			<name>Tracks</name>
			<Placemark>
				<name>Marathon 2026V1</name>
				<description>Length: 42.2 km (26.22 mi)</description>
				<visibility>1</visibility>
				<styleUrl>#track</styleUrl>
				<LineString>
					<extrude>0</extrude>
					<tessellate>1</tessellate>
					<altitudeMode>clampedToGround</altitudeMode>
					<coordinates>
						144.9761653,-37.8207006 144.9762082,-37.8197175 144.9759293,-37.8189887 144.9756289,-37.8185988 144.9750280,-37.8181242 144.9738908,-37.8174970 144.9732900,-37.8171580 144.9727106,-37.8166325 144.9723887,-37.8161748 144.9675822,-37.8175309 144.9680758,-37.8186327 144.9683762,-37.8193955 144.9688268,-37.8202091 144.9690413,-37.8207176 144.9695778,-37.8217346 144.9700069,-37.8227177 144.9702430,-37.8231753 144.9705863,-37.8231584 144.9709940,-37.8232601 144.9714017,-37.8236838 144.9719381,-37.8246499 144.9724746,-37.8255991 144.9724317,-37.8265652 144.9724960,-37.8271753 144.9730110,-37.8277516 144.9738264,-37.8285651 144.9741483,-37.8292939 144.9744058,-37.8299718 144.9748993,-37.8304463 144.9759936,-37.8307683 144.9765944,-37.8310903 144.9772167,-37.8315479 144.9779892,-37.8324123 144.9790192,-37.8329715 144.9800062,-37.8332596 144.9808860,-37.8332935 144.9816585,-37.8333613 144.9823880,-37.8336155 144.9824953,-37.8341239 144.9729466,-37.8329546 144.9725336,-37.8329546 144.9719918,-37.8329969 144.9720240,-37.8330647 144.9721634,-37.8331918 144.9723780,-37.8333655 144.9726301,-37.8334842 144.9729198,-37.8336282 144.9732578,-37.8337553 144.9735206,-37.8338909 144.9737138,-37.8340053 144.9741966,-37.8344713 144.9746472,-37.8350094 144.9749583,-37.8354458 144.9751568,-37.8357890 144.9753714,-37.8361618 144.9755645,-37.8365939 144.9756986,-37.8369032 144.9760848,-37.8379073 144.9765408,-37.8391528 144.9769700,-37.8403432 144.9772865,-37.8412795 144.9774742,-37.8417582 144.9781823,-37.8437047 144.9786276,-37.8448633 144.9789923,-37.8459139 144.9794859,-37.8472991 144.9800438,-37.8487859 144.9804300,-37.8498745 144.9809450,-37.8512554 144.9811435,-37.8517934 144.9813688,-37.8524668 144.9815351,-37.8528946 144.9816906,-37.8533097 144.9819642,-37.8540722 144.9821305,-37.8545974 144.9821681,-37.8547541 144.9823827,-37.8553937 144.9824899,-37.8557621 144.9825811,-37.8561391 144.9826026,-37.8564991 144.9825650,-37.8566558 144.9825382,-37.8567871 144.9823880,-37.8569396 144.9809986,-37.8577316 144.9805963,-37.8579603 144.9803442,-37.8580408 144.9785793,-37.8590700 144.9770987,-37.8599128 144.9746847,-37.8613486 144.9735850,-37.8620177 144.9729520,-37.8623904 144.9726677,-37.8625260 144.9724317,-37.8628267 144.9722493,-37.8633857 144.9722117,-37.8638600 144.9722224,-37.8641734 144.9723512,-37.8644910 144.9725658,-37.8648087 144.9728876,-37.8651602 144.9731827,-37.8653973 144.9735850,-37.8656980 144.9738854,-37.8659733 144.9741644,-37.8663290 144.9744809,-37.8669219 144.9747759,-37.8674682 144.9752802,-37.8682601 144.9757791,-37.8690012 144.9759454,-37.8692722 144.9761438,-37.8696999 144.9763477,-37.8711016 144.9765998,-37.8728928 144.9767822,-37.8742267 144.9769270,-37.8752430 144.9771416,-37.8767419 144.9773079,-37.8781773 144.9774796,-37.8793629 144.9776137,-37.8802860 144.9777263,-37.8810142 144.9777746,-37.8813275 144.9779892,-37.8818314 144.9783432,-37.8824750 144.9788475,-37.8831355 144.9791935,-37.8836435 144.9794430,-37.8839484 144.9798694,-37.8844014 144.9801296,-37.8846300 144.9802798,-37.8847613 144.9804193,-37.8849073 144.9811757,-37.8853731 144.9815673,-37.8856123 144.9819213,-37.8858218 144.9824739,-37.8861627 144.9831873,-37.8865945 144.9836111,-37.8868528 144.9841341,-37.8871682 144.9847001,-37.8875111 144.9850729,-37.8877545 144.9857435,-37.8881504 144.9863040,-37.8884806 144.9867573,-37.8887558 144.9870148,-37.8889125 144.9871865,-37.8890098 144.9875244,-37.8892173 144.9879375,-37.8894776 144.9884176,-37.8897571 144.9891311,-37.8901868 144.9900886,-37.8907689 144.9905312,-37.8910398 144.9906841,-37.8911859 144.9907485,-37.8913806 144.9906439,-37.8919902 144.9904990,-37.8927522 144.9903193,-37.8937069 144.9901745,-37.8944710 144.9899545,-37.8956309 144.9898177,-37.8963992 144.9896809,-37.8971675 144.9894583,-37.8983846 144.9893457,-37.8989772 144.9892947,-37.8989581 144.9894074,-37.8983909 144.9896353,-37.8971633 144.9897748,-37.8963950 144.9899170,-37.8956288 144.9901369,-37.8944752 144.9902844,-37.8937090 144.9904668,-37.8927480 144.9906117,-37.8919923 144.9907136,-37.8913848 144.9906573,-37.8912092 144.9905044,-37.8910716 144.9900645,-37.8907985 144.9891070,-37.8902227 144.9879214,-37.8895052 144.9871624,-37.8890437 144.9862799,-37.8885124 144.9850515,-37.8877863 144.9844614,-37.8874243 144.9836648,-37.8869332 144.9830693,-37.8865733 144.9825999,-37.8862918 144.9818569,-37.8858388 144.9811676,-37.8854133 144.9805802,-37.8850555 144.9802664,-37.8848481 144.9801403,-37.8847824 144.9798533,-37.8845686 144.9796790,-37.8844014 144.9793035,-37.8840267 144.9789897,-37.8836202 144.9786839,-37.8832180 144.9783057,-37.8827163 144.9779865,-37.8822294 144.9778470,-37.8819542 144.9777022,-37.8816155 144.9775976,-37.8812556 144.9775547,-37.8809380 144.9774984,-37.8803579 144.9773723,-37.8794307 144.9772516,-37.8785732 144.9771577,-37.8778280 144.9770558,-37.8770891 144.9769244,-37.8761745 144.9768332,-37.8754166 144.9766910,-37.8743580 144.9764523,-37.8726748 144.9763021,-37.8715420 144.9761117,-37.8700980 144.9760339,-37.8698439 144.9759373,-37.8695919 144.9757549,-37.8692913 144.9754545,-37.8687895 144.9750951,-37.8682114 144.9747598,-37.8676672 144.9744567,-37.8671654 144.9742234,-37.8667737 144.9739015,-37.8662380 144.9737781,-37.8660601 144.9736682,-37.8659373 144.9734107,-37.8657319 144.9730352,-37.8654651 144.9727508,-37.8652427 144.9725980,-37.8650818 144.9724156,-37.8648362 144.9722868,-37.8646181 144.9721929,-37.8644720 144.9721339,-37.8643301 144.9720883,-37.8641607 144.9720830,-37.8638981 144.9721071,-37.8635953 144.9721473,-37.8633327 144.9722090,-37.8630257 144.9722600,-37.8628584 144.9723861,-37.8626700 144.9725363,-37.8624709 144.9726570,-37.8622486 144.9727321,-37.8619733 144.9727160,-37.8617319 144.9726596,-37.8614375 144.9724934,-37.8611029 144.9722707,-37.8607535 144.9718148,-37.8602750 144.9713936,-37.8598302 144.9710959,-37.8595846 144.9708948,-37.8594491 144.9704173,-37.8591717 144.9698165,-37.8588244 144.9693149,-37.8585364 144.9685961,-37.8581298 144.9677190,-37.8576363 144.9667588,-37.8570963 144.9659005,-37.8566114 144.9648812,-37.8560311 144.9639291,-37.8554953 144.9629903,-37.8549637 144.9623707,-37.8546037 144.9615982,-37.8541823 144.9611771,-37.8539578 144.9605361,-37.8536465 144.9596643,-37.8532398 144.9586934,-37.8527591 144.9579450,-37.8523991 144.9572048,-37.8520433 144.9558449,-37.8513782 144.9551582,-37.8510415 144.9545199,-37.8507323 144.9538064,-37.8503807 144.9532244,-37.8500990 144.9526316,-37.8498110 144.9517143,-37.8493556 144.9512824,-37.8491460 144.9503571,-37.8486906 144.9496087,-37.8483433 144.9482408,-37.8476846 144.9475890,-37.8473605 144.9468273,-37.8469835 144.9460843,-37.8466362 144.9450919,-37.8461914 144.9445206,-37.8459351 144.9440083,-37.8456661 144.9434638,-37.8454077 144.9428523,-37.8451175 144.9423695,-37.8449015 144.9422005,-37.8448273 144.9418920,-37.8447574 144.9415460,-37.8447003 144.9411625,-37.8446494 144.9409103,-37.8446113 144.9405563,-37.8445350 144.9402130,-37.8443995 144.9399287,-37.8442533 144.9393493,-37.8439187 144.9387726,-37.8435861 144.9383810,-37.8433574 144.9381611,-37.8432388 144.9380431,-37.8431625 144.9377722,-37.8430630 144.9375227,-37.8429168 144.9371096,-37.8426817 144.9367288,-37.8424762 144.9363640,-37.8422560 144.9359590,-37.8420293 144.9357980,-37.8419382 144.9355915,-37.8418556 144.9351892,-37.8417285 144.9348646,-37.8416141 144.9347010,-37.8415697 144.9345857,-37.8415188 144.9344757,-37.8415082 144.9344006,-37.8414849 144.9343631,-37.8414510 144.9343470,-37.8414066 144.9343604,-37.8413557 144.9343979,-37.8413091 144.9344838,-37.8412795 144.9345696,-37.8413007 144.9346098,-37.8413324 144.9346501,-37.8413960 144.9346876,-37.8414362 144.9348593,-37.8415040 144.9352026,-37.8416290 144.9355379,-37.8417561 144.9357203,-37.8418133 144.9361360,-37.8420526 144.9368575,-37.8424614 144.9373457,-37.8427050 144.9379385,-37.8429867 144.9383488,-37.8432176 144.9388182,-37.8434823 144.9392956,-37.8437641 144.9397007,-37.8439949 144.9401835,-37.8442660 144.9403766,-37.8443508 144.9406716,-37.8444503 144.9409157,-37.8445054 144.9411866,-37.8445393 144.9415809,-37.8445943 144.9419591,-37.8446600 144.9421710,-37.8447193 144.9424070,-37.8447934 144.9426726,-37.8449142 144.9432868,-37.8452001 144.9439734,-37.8455136 144.9446306,-37.8458271 144.9451911,-37.8461003 144.9458107,-37.8463926 144.9465322,-37.8467378 144.9470070,-37.8469517 144.9476802,-37.8472779 144.9485117,-37.8476719 144.9493083,-37.8480573 144.9499682,-37.8483835 144.9503651,-37.8485784 144.9509096,-37.8488473 144.9513280,-37.8490443 144.9518162,-37.8492752 144.9526611,-37.8496903 144.9535221,-37.8501117 144.9547505,-37.8507026 144.9555042,-37.8510775 144.9561828,-37.8514100 144.9568856,-37.8517510 144.9575615,-37.8520644 144.9586371,-37.8526024 144.9593371,-37.8529434 144.9597609,-37.8531509 144.9606729,-37.8535893 144.9613863,-37.8539281 144.9622849,-37.8543729 144.9629071,-37.8546842 144.9638540,-37.8551543 144.9646908,-37.8555758 144.9660641,-37.8562958 144.9667776,-37.8566707 144.9678022,-37.8572001 144.9686524,-37.8576512 144.9691808,-37.8579307 144.9697387,-37.8582166 144.9700418,-37.8583839 144.9702510,-37.8585427 144.9708036,-37.8590721 144.9712703,-37.8595486 144.9718791,-37.8601966 144.9724129,-37.8607578 144.9725389,-37.8609251 144.9726516,-37.8610458 144.9727750,-37.8610881 144.9729681,-37.8613147 144.9731237,-37.8614841 144.9733275,-37.8617149 144.9734616,-37.8617890 144.9736038,-37.8619330 144.9746874,-37.8612893 144.9756503,-37.8607112 144.9768466,-37.8599827 144.9777612,-37.8594470 144.9781877,-37.8592182 144.9788663,-37.8588074 144.9795181,-37.8584072 144.9800947,-37.8580556 144.9800894,-37.8577973 144.9797836,-37.8574796 144.9792847,-37.8569290 144.9789253,-37.8564059 144.9788019,-37.8561179 144.9786973,-37.8557664 144.9786544,-37.8554042 144.9786517,-37.8551099 144.9786919,-37.8548939 144.9787080,-37.8546863 144.9787134,-37.8542162 144.9786946,-37.8537587 144.9786651,-37.8534770 144.9786356,-37.8533817 144.9774072,-37.8536020 144.9767849,-37.8537269 144.9762967,-37.8538434 144.9760500,-37.8538985 144.9759185,-37.8538900 144.9757335,-37.8538561 144.9755645,-37.8537968 144.9754277,-37.8536931 144.9752426,-37.8534749 144.9749583,-37.8530683 144.9746820,-37.8526617 144.9744380,-37.8523461 144.9742958,-37.8521767 144.9742180,-37.8521026 144.9741429,-37.8520750 144.9740490,-37.8520793 144.9739847,-37.8521322 144.9733838,-37.8526680 144.9732471,-37.8527824 144.9730298,-37.8528629 144.9728394,-37.8528925 144.9726355,-37.8528713 144.9724397,-37.8528078 144.9722493,-37.8526829 144.9720776,-37.8525388 144.9715573,-37.8521280 144.9712434,-37.8518781 144.9704736,-37.8512724 144.9699131,-37.8508191 144.9691594,-37.8502303 144.9684888,-37.8496776 144.9677753,-37.8491163 144.9672604,-37.8486970 144.9669063,-37.8484026 144.9664369,-37.8480467 144.9661312,-37.8478116 144.9660078,-37.8476867 144.9659783,-37.8475850 144.9660212,-37.8474961 144.9660963,-37.8473711 144.9662036,-37.8471191 144.9662304,-37.8468713 144.9662143,-37.8466976 144.9662009,-37.8465768 144.9662150,-37.8465742 144.9662478,-37.8466912 144.9662626,-37.8468750 144.9662378,-37.8471238 144.9661231,-37.8473796 144.9660473,-37.8475035 144.9660064,-37.8475882 144.9660098,-37.8476205 144.9660393,-37.8476676 144.9661164,-37.8477455 144.9662894,-37.8478900 144.9667132,-37.8482236 144.9670196,-37.8484523 144.9672751,-37.8486620 144.9675809,-37.8489082 144.9678612,-37.8491306 144.9681287,-37.8493451 144.9684955,-37.8496389 144.9689052,-37.8499741 144.9692774,-37.8502685 144.9695208,-37.8504617 144.9698326,-37.8507079 144.9701149,-37.8509356 144.9705427,-37.8512718 144.9708894,-37.8515519 144.9711791,-37.8517833 144.9715626,-37.8520867 144.9720266,-37.8524637 144.9722989,-37.8526813 144.9723559,-37.8527242 144.9724296,-37.8527676 144.9725336,-37.8528120 144.9726080,-37.8528338 144.9726938,-37.8528528 144.9727797,-37.8528639 144.9729145,-37.8528555 144.9730238,-37.8528338 144.9731324,-37.8527946 144.9732122,-37.8527623 144.9734120,-37.8525891 144.9735039,-37.8525023 144.9735951,-37.8524229 144.9737889,-37.8522498 144.9738861,-37.8521613 144.9739558,-37.8521031 144.9740061,-37.8520671 144.9740604,-37.8520475 144.9741020,-37.8520464 144.9740919,-37.8519533 144.9740450,-37.8518590 144.9740008,-37.8518241 144.9738277,-37.8516467 144.9736145,-37.8514121 144.9733047,-37.8510828 144.9730425,-37.8508069 144.9728782,-37.8506433 144.9726080,-37.8503924 144.9722908,-37.8500879 144.9719643,-37.8498020 144.9716652,-37.8495844 144.9712206,-37.8492540 144.9707519,-37.8489035 144.9703918,-37.8486297 144.9700512,-37.8484216 144.9696220,-37.8481442 144.9694531,-37.8480293 144.9690608,-37.8478185 144.9687148,-37.8476120 144.9682099,-37.8473679 144.9679182,-37.8472255 144.9673603,-37.8469369 144.9671263,-37.8468405 144.9669392,-37.8467426 144.9668044,-37.8466685 144.9667098,-37.8466033 144.9666220,-37.8465006 144.9665409,-37.8465117 144.9664912,-37.8464990 144.9664235,-37.8465001 144.9662787,-37.8465202 144.9662177,-37.8465308 144.9661922,-37.8465160 144.9660956,-37.8463608 144.9659763,-37.8462115 144.9658240,-37.8460865 144.9656450,-37.8459504 144.9653842,-37.8457614 144.9649416,-37.8454331 144.9646465,-37.8451927 144.9642509,-37.8448400 144.9639398,-37.8445583 144.9636327,-37.8442533 144.9631713,-37.8437630 144.9628213,-37.8433171 144.9626215,-37.8430386 144.9623854,-37.8426944 144.9622554,-37.8425091 144.9621910,-37.8423979 144.9621414,-37.8422994 144.9621440,-37.8422284 144.9621816,-37.8421522 144.9622473,-37.8421109 144.9623211,-37.8420918 144.9624525,-37.8420759 144.9625893,-37.8420600 144.9627341,-37.8420219 144.9628146,-37.8419827 144.9628723,-37.8419351 144.9629474,-37.8418387 144.9630211,-37.8416819 144.9631137,-37.8414934 144.9631847,-37.8413494 144.9632236,-37.8412392 144.9633229,-37.8410507 144.9634275,-37.8408463 144.9635187,-37.8406864 144.9636206,-37.8405582 144.9636555,-37.8404852 144.9636850,-37.8403581 144.9636890,-37.8402352 144.9636823,-37.8400605 144.9636810,-37.8399122 144.9638338,-37.8397544 144.9640444,-37.8396040 144.9645044,-37.8393498 144.9648571,-37.8391401 144.9652675,-37.8389336 144.9659917,-37.8386804 144.9664383,-37.8385300 144.9669452,-37.8383722 144.9673019,-37.8382250 144.9676064,-37.8380831 144.9678692,-37.8379602 144.9679376,-37.8379295 144.9679839,-37.8379639 144.9680650,-37.8380439 144.9681482,-37.8381217 144.9683815,-37.8382970 144.9686256,-37.8384220 144.9688992,-37.8384898 144.9692962,-37.8385279 144.9697253,-37.8385576 144.9700150,-37.8386169 144.9702752,-37.8387016 144.9704468,-37.8387758 144.9706587,-37.8388944 144.9709055,-37.8390723 144.9711308,-37.8392799 144.9713239,-37.8395553 144.9714714,-37.8399323 144.9715626,-37.8403263 144.9716914,-37.8408050 144.9717611,-37.8412308 144.9717638,-37.8415930 144.9716485,-37.8419891 144.9714956,-37.8423809 144.9712059,-37.8429507 144.9709672,-37.8434294 144.9707767,-37.8438424 144.9706507,-37.8442406 144.9706078,-37.8445689 144.9706239,-37.8450180 144.9706963,-37.8453971 144.9708465,-37.8458207 144.9710637,-37.8462316 144.9713320,-37.8465790 144.9715868,-37.8468649 144.9720213,-37.8471995 144.9724746,-37.8475257 144.9729145,-37.8478349 144.9731129,-37.8479451 144.9733731,-37.8480383 144.9735394,-37.8480764 144.9737003,-37.8480912 144.9739230,-37.8480870 144.9741805,-37.8480912 144.9745372,-37.8480764 144.9747303,-37.8480785 144.9748161,-37.8481082 144.9749932,-37.8481929 144.9753365,-37.8484068 144.9761036,-37.8489278 144.9766481,-37.8492794 144.9768868,-37.8494509 144.9771336,-37.8496522 144.9773455,-37.8498745 144.9774876,-37.8500969 144.9776620,-37.8504125 144.9778739,-37.8510140 144.9782225,-37.8519564 144.9784613,-37.8525748 144.9786812,-37.8533627 144.9787295,-37.8536232 144.9787590,-37.8539472 144.9787590,-37.8543242 144.9787509,-37.8546418 144.9787617,-37.8549828 144.9787751,-37.8553534 144.9788314,-37.8556266 144.9788958,-37.8558934 144.9790406,-37.8562132 144.9792364,-37.8566114 144.9794403,-37.8569036 144.9798399,-37.8573483 144.9800330,-37.8575177 144.9802315,-37.8577359 144.9803844,-37.8578735 144.9812561,-37.8573780 144.9821815,-37.8568401 144.9825194,-37.8566219 144.9825382,-37.8563763 144.9825007,-37.8560480 144.9823961,-37.8556245 144.9821386,-37.8548706 144.9820715,-37.8546757 144.9819884,-37.8546037 144.9817282,-37.8538815 144.9814385,-37.8530281 144.9811649,-37.8522783 144.9809772,-37.8517404 144.9806741,-37.8509060 144.9802503,-37.8497644 144.9798292,-37.8486165 144.9792606,-37.8470598 144.9789307,-37.8461532 144.9785793,-37.8452044 144.9781501,-37.8440119 144.9779919,-37.8435840 144.9776271,-37.8425779 144.9774018,-37.8419785 144.9769270,-37.8406355 144.9767125,-37.8400636 144.9762484,-37.8387927 144.9756154,-37.8370388 144.9756423,-37.8369223 144.9753714,-37.8363249 144.9750844,-37.8357953 144.9747437,-37.8352382 144.9742931,-37.8346620 144.9739686,-37.8342998 144.9736896,-37.8340434 144.9732229,-37.8338104 144.9727213,-37.8335837 144.9723351,-37.8333910 144.9721152,-37.8332279 144.9719596,-37.8330647 144.9718550,-37.8329355 144.9717826,-37.8327576 144.9716485,-37.8324462 144.9716029,-37.8322915 144.9715358,-37.8321919 144.9714071,-37.8319483 144.9712998,-37.8316475 144.9712166,-37.8313509 144.9711603,-37.8309971 144.9711254,-37.8305184 144.9710986,-37.8298913 144.9711120,-37.8287685 144.9711737,-37.8279359 144.9711978,-37.8271647 144.9711791,-37.8267431 144.9711147,-37.8262516 144.9709833,-37.8257622 144.9707848,-37.8252304 144.9705595,-37.8247262 144.9702966,-37.8241436 144.9700177,-37.8235609 144.9698326,-37.8231181 144.9695134,-37.8224211 144.9692130,-37.8217876 144.9689931,-37.8213151 144.9688187,-37.8209740 144.9686927,-37.8206689 144.9686068,-37.8204803 144.9685800,-37.8203129 144.9686015,-37.8201900 144.9683359,-37.8195311 144.9677619,-37.8184378 144.9675313,-37.8179314 144.9673462,-37.8175690 144.9673998,-37.8174250 144.9676520,-37.8173254 144.9685612,-37.8170669 144.9695402,-37.8167787 144.9705595,-37.8164566 144.9722868,-37.8159587 144.9729386,-37.8157934 144.9733731,-37.8157447 144.9738023,-37.8157638 144.9742985,-37.8158083 144.9750334,-37.8159015 144.9762243,-37.8160774 144.9774474,-37.8162511 144.9784184,-37.8163846 144.9789467,-37.8164545 144.9790594,-37.8164799 144.9789146,-37.8173169 144.9787939,-37.8179992 144.9787295,-37.8182598 144.9787429,-37.8183975 144.9788448,-37.8186030 144.9791747,-37.8188531 144.9796334,-37.8191285 144.9804193,-37.8195968 144.9809182,-37.8198892 144.9813393,-37.8201392 144.9817577,-37.8204104 144.9821815,-37.8206646 144.9823290,-37.8205693 144.9826401,-37.8203680 144.9827957,-37.8204252 144.9829191,-37.8204803 144.9831042,-37.8205502 144.9832517,-37.8205778 144.9834260,-37.8205905 144.9836165,-37.8205714 144.9837935,-37.8205057 144.9840108,-37.8204210 144.9841475,-37.8203150 144.9842387,-37.8202239 144.9842817,-37.8200735 144.9842682,-37.8198892 144.9842200,-37.8197091 144.9840617,-37.8195925 144.9838632,-37.8195184 144.9836674,-37.8194718 144.9834797,-37.8194506 
					</coordinates>
				</LineString>
			</Placemark>
		</Folder>
	</Document>
</kml>
